CCSDS_OMM_VERS = 2.0
CREATION_DATE  = 
ORIGINATOR     = 

OBJECT_NAME    = ATLAS CENTAUR 2
OBJECT_ID      = 1963-047A
CENTER_NAME    = EARTH
REF_FRAME      = TEME
TIME_SYSTEM    = UTC
MEAN_ELEMENT_THEORY = SGP/SGP4

EPOCH          = 2026-03-27T17:07:30.179136
MEAN_MOTION    = 14.12136414
ECCENTRICITY   = .0547438
INCLINATION    = 30.3571
RA_OF_ASC_NODE = 94.9078
ARG_OF_PERICENTER = 239.1471
MEAN_ANOMALY   = 115.4168

EPHEMERIS_TYPE = 0
CLASSIFICATION_TYPE = U
NORAD_CAT_ID   = 694
ELEMENT_SET_NO = 999
REV_AT_EPOCH   = 13417
BSTAR          = .23372E-3
MEAN_MOTION_DOT = .2032E-4
MEAN_MOTION_DDOT = 0

CCSDS_OMM_VERS = 2.0
CREATION_DATE  = 
ORIGINATOR     = 

OBJECT_NAME    = THOR AGENA D R/B
OBJECT_ID      = 1964-002A
CENTER_NAME    = EARTH
REF_FRAME      = TEME
TIME_SYSTEM    = UTC
MEAN_ELEMENT_THEORY = SGP/SGP4

EPOCH          = 2026-03-27T19:15:58.472640
MEAN_MOTION    = 14.34029368
ECCENTRICITY   = .0032518
INCLINATION    = 99.1216
RA_OF_ASC_NODE = 101.1273
ARG_OF_PERICENTER = 204.1476
MEAN_ANOMALY   = 155.8184

EPHEMERIS_TYPE = 0
CLASSIFICATION_TYPE = U
NORAD_CAT_ID   = 733
ELEMENT_SET_NO = 999
REV_AT_EPOCH   = 24089
BSTAR          = .8496E-4
MEAN_MOTION_DOT = .19E-5
MEAN_MOTION_DDOT = 0

CCSDS_OMM_VERS = 2.0
CREATION_DATE  = 
ORIGINATOR     = 

OBJECT_NAME    = SL-3 R/B
OBJECT_ID      = 1964-053B
CENTER_NAME    = EARTH
REF_FRAME      = TEME
TIME_SYSTEM    = UTC
MEAN_ELEMENT_THEORY = SGP/SGP4

EPOCH          = 2026-03-27T19:50:41.626752
MEAN_MOTION    = 14.61380113
ECCENTRICITY   = .0080381
INCLINATION    = 65.0755
RA_OF_ASC_NODE = 278.0610
ARG_OF_PERICENTER = 286.5168
MEAN_ANOMALY   = 72.7112

EPHEMERIS_TYPE = 0
CLASSIFICATION_TYPE = U
NORAD_CAT_ID   = 877
ELEMENT_SET_NO = 999
REV_AT_EPOCH   = 26944
BSTAR          = .58365E-4
MEAN_MOTION_DOT = .176E-5
MEAN_MOTION_DDOT = 0

CCSDS_OMM_VERS = 2.0
CREATION_DATE  = 
ORIGINATOR     = 

OBJECT_NAME    = SL-8 R/B
OBJECT_ID      = 1967-045B
CENTER_NAME    = EARTH
REF_FRAME      = TEME
TIME_SYSTEM    = UTC
MEAN_ELEMENT_THEORY = SGP/SGP4

EPOCH          = 2026-03-27T18:36:06.141312
MEAN_MOTION    = 14.45636540
ECCENTRICITY   = .0064845
INCLINATION    = 74.0113
RA_OF_ASC_NODE = 314.3153
ARG_OF_PERICENTER = 316.5623
MEAN_ANOMALY   = 43.0435

EPHEMERIS_TYPE = 0
CLASSIFICATION_TYPE = U
NORAD_CAT_ID   = 2802
ELEMENT_SET_NO = 999
REV_AT_EPOCH   = 9163
BSTAR          = .79709E-4
MEAN_MOTION_DOT = .26E-5
MEAN_MOTION_DDOT = 0

CCSDS_OMM_VERS = 2.0
CREATION_DATE  = 
ORIGINATOR     = 

OBJECT_NAME    = SL-8 R/B
OBJECT_ID      = 1968-040B
CENTER_NAME    = EARTH
REF_FRAME      = TEME
TIME_SYSTEM    = UTC
MEAN_ELEMENT_THEORY = SGP/SGP4

EPOCH          = 2026-03-27T19:27:30.036384
MEAN_MOTION    = 15.03373808
ECCENTRICITY   = .0023282
INCLINATION    = 74.0292
RA_OF_ASC_NODE = 276.6612
ARG_OF_PERICENTER = 93.2772
MEAN_ANOMALY   = 267.1081

EPHEMERIS_TYPE = 0
CLASSIFICATION_TYPE = U
NORAD_CAT_ID   = 3230
ELEMENT_SET_NO = 999
REV_AT_EPOCH   = 9273
BSTAR          = .25485E-3
MEAN_MOTION_DOT = .3442E-4
MEAN_MOTION_DDOT = 0

CCSDS_OMM_VERS = 2.0
CREATION_DATE  = 
ORIGINATOR     = 

OBJECT_NAME    = OAO 2
OBJECT_ID      = 1968-110A
CENTER_NAME    = EARTH
REF_FRAME      = TEME
TIME_SYSTEM    = UTC
MEAN_ELEMENT_THEORY = SGP/SGP4

EPOCH          = 2026-03-27T12:18:27.393120
MEAN_MOTION    = 14.47317427
ECCENTRICITY   = .0005846
INCLINATION    = 34.9925
RA_OF_ASC_NODE = 165.7095
ARG_OF_PERICENTER = 335.3266
MEAN_ANOMALY   = 24.7144

EPHEMERIS_TYPE = 0
CLASSIFICATION_TYPE = U
NORAD_CAT_ID   = 3597
ELEMENT_SET_NO = 999
REV_AT_EPOCH   = 2168
BSTAR          = .61027E-4
MEAN_MOTION_DOT = .207E-5
MEAN_MOTION_DDOT = 0

CCSDS_OMM_VERS = 2.0
CREATION_DATE  = 
ORIGINATOR     = 

OBJECT_NAME    = ISIS 1
OBJECT_ID      = 1969-009A
CENTER_NAME    = EARTH
REF_FRAME      = TEME
TIME_SYSTEM    = UTC
MEAN_ELEMENT_THEORY = SGP/SGP4

EPOCH          = 2026-03-27T16:27:12.657888
MEAN_MOTION    = 11.30418679
ECCENTRICITY   = .1707854
INCLINATION    = 88.4510
RA_OF_ASC_NODE = 153.3448
ARG_OF_PERICENTER = 52.8608
MEAN_ANOMALY   = 321.6549

EPHEMERIS_TYPE = 0
CLASSIFICATION_TYPE = U
NORAD_CAT_ID   = 3669
ELEMENT_SET_NO = 999
REV_AT_EPOCH   = 35056
BSTAR          = .54562E-4
MEAN_MOTION_DOT = .97E-6
MEAN_MOTION_DDOT = 0

CCSDS_OMM_VERS = 2.0
CREATION_DATE  = 
ORIGINATOR     = 

OBJECT_NAME    = SERT 2
OBJECT_ID      = 1970-009A
CENTER_NAME    = EARTH
REF_FRAME      = TEME
TIME_SYSTEM    = UTC
MEAN_ELEMENT_THEORY = SGP/SGP4

EPOCH          = 2026-03-27T19:29:02.987232
MEAN_MOTION    = 13.58731491
ECCENTRICITY   = .0005599
INCLINATION    = 99.2781
RA_OF_ASC_NODE = 28.9160
ARG_OF_PERICENTER = 113.8212
MEAN_ANOMALY   = 301.1248

EPHEMERIS_TYPE = 0
CLASSIFICATION_TYPE = U
NORAD_CAT_ID   = 4327
ELEMENT_SET_NO = 999
REV_AT_EPOCH   = 78235
BSTAR          = .59268E-4
MEAN_MOTION_DOT = .2E-7
MEAN_MOTION_DDOT = 0

CCSDS_OMM_VERS = 2.0
CREATION_DATE  = 
ORIGINATOR     = 

OBJECT_NAME    = SL-3 R/B
OBJECT_ID      = 1971-028B
CENTER_NAME    = EARTH
REF_FRAME      = TEME
TIME_SYSTEM    = UTC
MEAN_ELEMENT_THEORY = SGP/SGP4

EPOCH          = 2026-03-27T20:24:56.401056
MEAN_MOTION    = 15.62714351
ECCENTRICITY   = .0014288
INCLINATION    = 81.2366
RA_OF_ASC_NODE = 29.5738
ARG_OF_PERICENTER = 209.7345
MEAN_ANOMALY   = 150.3098

EPHEMERIS_TYPE = 0
CLASSIFICATION_TYPE = U
NORAD_CAT_ID   = 5118
ELEMENT_SET_NO = 999
REV_AT_EPOCH   = 99150
BSTAR          = .48036E-3
MEAN_MOTION_DOT = .43458E-3
MEAN_MOTION_DDOT = 0

CCSDS_OMM_VERS = 2.0
CREATION_DATE  = 
ORIGINATOR     = 

OBJECT_NAME    = ASTEX 1
OBJECT_ID      = 1971-089A
CENTER_NAME    = EARTH
REF_FRAME      = TEME
TIME_SYSTEM    = UTC
MEAN_ELEMENT_THEORY = SGP/SGP4

EPOCH          = 2026-03-27T18:07:36.630912
MEAN_MOTION    = 14.50787428
ECCENTRICITY   = .0016538
INCLINATION    = 92.7094
RA_OF_ASC_NODE = 157.5989
ARG_OF_PERICENTER = 31.4197
MEAN_ANOMALY   = 328.7993

EPHEMERIS_TYPE = 0
CLASSIFICATION_TYPE = U
NORAD_CAT_ID   = 5560
ELEMENT_SET_NO = 999
REV_AT_EPOCH   = 86492
BSTAR          = .972E-4
MEAN_MOTION_DOT = .382E-5
MEAN_MOTION_DDOT = 0

CCSDS_OMM_VERS = 2.0
CREATION_DATE  = 
ORIGINATOR     = 

OBJECT_NAME    = SL-8 R/B
OBJECT_ID      = 1971-119B
CENTER_NAME    = EARTH
REF_FRAME      = TEME
TIME_SYSTEM    = UTC
MEAN_ELEMENT_THEORY = SGP/SGP4

EPOCH          = 2026-03-27T16:12:46.736352
MEAN_MOTION    = 14.38205348
ECCENTRICITY   = .0546576
INCLINATION    = 73.8858
RA_OF_ASC_NODE = 142.0926
ARG_OF_PERICENTER = 104.9175
MEAN_ANOMALY   = 261.3144

EPHEMERIS_TYPE = 0
CLASSIFICATION_TYPE = U
NORAD_CAT_ID   = 5730
ELEMENT_SET_NO = 999
REV_AT_EPOCH   = 65807
BSTAR          = .3597E-3
MEAN_MOTION_DOT = .6862E-4
MEAN_MOTION_DDOT = 0

CCSDS_OMM_VERS = 2.0
CREATION_DATE  = 
ORIGINATOR     = 

OBJECT_NAME    = OAO 3 (COPERNICUS)
OBJECT_ID      = 1972-065A
CENTER_NAME    = EARTH
REF_FRAME      = TEME
TIME_SYSTEM    = UTC
MEAN_ELEMENT_THEORY = SGP/SGP4

EPOCH          = 2026-03-27T16:03:10.206432
MEAN_MOTION    = 14.60011743
ECCENTRICITY   = .0007206
INCLINATION    = 35.0050
RA_OF_ASC_NODE = 194.8782
ARG_OF_PERICENTER = 305.0810
MEAN_ANOMALY   = 198.0631

EPHEMERIS_TYPE = 0
CLASSIFICATION_TYPE = U
NORAD_CAT_ID   = 6153
ELEMENT_SET_NO = 999
REV_AT_EPOCH   = 84882
BSTAR          = .671E-4
MEAN_MOTION_DOT = .306E-5
MEAN_MOTION_DDOT = 0

