ATLAS CENTAUR 2         
1 00694U 63047A   26086.71354374  .00002032  00000+0  23372-3 0  9991
2 00694  30.3571  94.9078 0547438 239.1471 115.4168 14.12136414134174
THOR AGENA D R/B        
1 00733U 64002A   26086.80276010  .00000190  00000+0  84960-4 0  9991
2 00733  99.1216 101.1273 0032518 204.1476 155.8184 14.34029368240896
SL-3 R/B                
1 00877U 64053B   26086.82687068  .00000176  00000+0  58365-4 0  9991
2 00877  65.0755 278.0610 0080381 286.5168  72.7112 14.61380113269445
SL-8 R/B                
1 02802U 67045B   26086.77507108  .00000260  00000+0  79709-4 0  9994
2 02802  74.0113 314.3153 0064845 316.5623  43.0435 14.45636540 91639
SL-8 R/B                
1 03230U 68040B   26086.81076431  .00003442  00000+0  25485-3 0  9997
2 03230  74.0292 276.6612 0023282  93.2772 267.1081 15.03373808 92735
OAO 2                   
1 03597U 68110A   26086.51281705  .00000207  00000+0  61027-4 0  9999
2 03597  34.9925 165.7095 0005846 335.3266  24.7144 14.47317427 21681
ISIS 1                  
1 03669U 69009A   26086.68556317  .00000097  00000+0  54562-4 0  9992
2 03669  88.4510 153.3448 1707854  52.8608 321.6549 11.30418679350560
SERT 2                  
1 04327U 70009A   26086.81184013  .00000002  00000+0  59268-4 0  9995
2 04327  99.2781  28.9160 0005599 113.8212 301.1248 13.58731491782352
SL-3 R/B                
1 05118U 71028B   26086.85065279  .00043458  00000+0  48036-3 0  9994
2 05118  81.2366  29.5738 0014288 209.7345 150.3098 15.62714351991505
ASTEX 1                 
1 05560U 71089A   26086.75528508  .00000382  00000+0  97200-4 0  9997
2 05560  92.7094 157.5989 0016538  31.4197 328.7993 14.50787428864927
SL-8 R/B                
1 05730U 71119B   26086.67554093  .00006862  00000+0  35970-3 0  9993
2 05730  73.8858 142.0926 0546576 104.9175 261.3144 14.38205348658075
OAO 3 (COPERNICUS)      
1 06153U 72065A   26086.66886813  .00000306  00000+0  67100-4 0  9999
2 06153  35.0050 194.8782 0007206 305.0810 198.0631 14.60011743848826
